GPS BIIR-08             
1 27663U 03005A   26087.08268548 -.00000029  00000+0  00000+0 0  9996
2 27663  54.9010 218.1895 0148530  52.8576 125.4188  2.00564876169680
GPS BIIR-11             
1 28190U 04009A   26087.36597193 -.00000001  00000+0  00000+0 0  9999
2 28190  54.8974 278.9506 0112157 169.7670   8.2543  2.00557238161326
GPS BIIR-13             
1 28474U 04045A   26085.30519351 -.00000073  00000+0  00000+0 0  9995
2 28474  55.1822 328.2360 0170517 313.6726 241.0281  2.00574367156760
GPS BIIR-14M            
1 28874U 05038A   26087.36787354  .00000000  00000+0  00000+0 0  9999
2 28874  54.9447 276.4371 0128190 295.6323 268.7932  2.00571249150211
METEOSAT-9 (MSG-2)      
1 28912U 05049B   26087.55372007  .00000111  00000+0  00000+0 0  9993
2 28912   9.1814  54.9434 0000189 125.5968 250.3933  1.00272852  6198
GPS BIIR-16M            
1 29601U 06052A   26087.14688671 -.00000030  00000+0  00000+0 0  9997
2 29601  54.9512 217.2168 0087307  89.8109 271.1536  2.00553180141783
GPS BIIR-17M            
1 32260U 07047A   26086.95412080  .00000026  00000+0  00000+0 0  9998
2 32260  54.0351  83.4118 0163968  86.1575 275.7399  2.00559397135183
GPS BIIR-18M            
1 32384U 07062A   26087.26503117  .00000001  00000+0  00000+0 0  9992
2 32384  55.0970 277.4035 0033697 161.1024 190.8547  2.00554962133889
GOES 14                 
1 35491U 09033A   26087.45253054  .00000054  00000+0  00000+0 0  9995
2 35491   1.4821  84.0264 0001721 276.6809 175.3990  1.00108484  5783
GOES 15                 
1 36411U 10008A   26087.55727341  .00000003  00000+0  00000+0 0  9992
2 36411   1.0676  84.4696 0002679  19.1801 346.2397  1.00270346 58839
GSAT0101 (GALILEO-PFM)  
1 37846U 11060A   26086.31314158 -.00000097  00000+0  00000+0 0  9999
2 37846  57.0197 343.9840 0004117  13.5470 346.4977  1.70475647 89720
GSAT0102 (GALILEO-FM2)  
1 37847U 11060B   26084.77692247 -.00000092  00000+0  00000+0 0  9991
2 37847  57.0211 344.0260 0005101  12.2439 170.5187  1.70475620 89709
LUCH 5A                 
1 37951U 11074B   26087.29259301 -.00000063  00000+0  00000+0 0  9990
2 37951   8.5497  74.9826 0003252 270.7103 112.3109  1.00269714 52248
METEOSAT-10 (MSG-3)     
1 38552U 12035B   26087.24281126 -.00000023  00000+0  00000+0 0  9997
2 38552   4.4812  61.3545 0002443 284.0878 287.6853  1.00271199 50046
SARSAT 13 (METOP-B)     
1 38771U 12049A   26087.59131616  .00000113  00000+0  71679-4 0  9995
2 38771  98.6600 140.6651 0002023 190.5576 169.5560 14.21424374701811
GPS BIIF-3              
1 38833U 12053A   26086.05261588 -.00000004  00000+0  00000+0 0  9996
2 38833  53.5685 146.9649 0177237  64.9128 296.9786  2.00566077 97797
GSAT0103 (GALILEO-FM3)  
1 38857U 12055A   26086.35355997  .00000039  00000+0  00000+0 0  9992
2 38857  55.7542 103.7894 0005825 290.2864  69.7017  1.70473333 83613
